ONEWEB-0228             
1 48780U 21045P   26154.25271823 -.00000061  00000+0 -19720-3 0  9997
2 48780  87.9011 261.9570 0001822 100.6707 259.4629 13.15550264242499
ONEWEB-0232             
1 48781U 21045Q   26153.77089565 -.00000019  00000+0 -83629-4 0  9997
2 48781  87.9012 262.0544 0001891 102.4217 257.7125 13.15549738242751
ONEWEB-0231             
1 48782U 21045R   26153.82476307  .00000201  00000+0  49898-3 0  9998
2 48782  87.9007 262.0570 0001624 100.2961 259.8353 13.15547779242457
ONEWEB-0234             
1 48783U 21045S   26154.24294692 -.00000062  00000+0 -19819-3 0  9998
2 48783  87.9005 261.9553 0002364 119.9305 240.2060 13.15548465242649
ONEWEB-0238             
1 48784U 21045T   26154.24321769 -.00000082  00000+0 -25125-3 0  9994
2 48784  87.9013 261.9493 0002132 112.1650 247.9707 13.15550193242545
ONEWEB-0240             
1 48785U 21045U   26154.26446310 -.00000047  00000+0 -15960-3 0  9994
2 48785  87.9015 261.9547 0001629 107.4311 252.6997 13.15550284242577
ONEWEB-0246             
1 48786U 21045V   26154.25893327 -.00000033  00000+0 -12298-3 0  9994
2 48786  87.9013 261.9604 0001873  98.4232 261.7111 13.15548673242446
ONEWEB-0210             
1 48787U 21045W   26154.23357868  .00000011  00000+0 -45545-5 0  9996
2 48787  87.9010 261.9633 0001510  74.2296 285.9001 13.15550052242480
ONEWEB-0214             
1 48788U 21045X   26154.24228880 -.00000057  00000+0 -18569-3 0  9994
2 48788  87.9008 261.9578 0001981  87.6925 272.4432 13.15547866242450
ONEWEB-0221             
1 48789U 21045Y   26154.24941728 -.00000077  00000+0 -23825-3 0  9991
2 48789  87.9009 261.9656 0001745 102.1976 257.9350 13.15547355242546
ONEWEB-0213             
1 48790U 21045Z   26154.23831651 -.00000016  00000+0 -77807-4 0  9998
2 48790  87.9009 261.9710 0001645  97.4925 262.6392 13.15550263242606
ONEWEB-0212             
1 48791U 21045AA  26154.21536328  .00000156  00000+0  38082-3 0  9994
2 48791  87.9009 261.9698 0001931 103.1092 257.0254 13.15549128242591
ONEWEB-0227             
1 48792U 21045AB  26153.83428064  .00000192  00000+0  47522-3 0  9998
2 48792  87.9014 262.0461 0001829 102.3010 257.8326 13.15547492242494
ONEWEB-0226             
1 48793U 21045AC  26153.82794182  .00000165  00000+0  40472-3 0  9992
2 48793  87.9007 262.0528 0001716  94.5677 265.5649 13.15548870242469
ONEWEB-0224             
1 48794U 21045AD  26154.24782597 -.00000062  00000+0 -19875-3 0  9998
2 48794  87.8998 262.0041 0001790 128.1920 231.9372 13.15550335242442
ONEWEB-0233             
1 48795U 21045AE  26154.25244788 -.00000085  00000+0 -25926-3 0  9994
2 48795  87.8998 262.0112 0001630 103.5440 256.5872 13.15547275242468
