[{"OBJECT_NAME":"ONEWEB-0228","OBJECT_ID":"2021-045P","EPOCH":"2026-06-03T06:03:54.855072","MEAN_MOTION":13.15550264,"ECCENTRICITY":0.0001822,"INCLINATION":87.9011,"RA_OF_ASC_NODE":261.957,"ARG_OF_PERICENTER":100.6707,"MEAN_ANOMALY":259.4629,"EPHEMERIS_TYPE":0,"CLASSIFICATION_TYPE":"U","NORAD_CAT_ID":48780,"ELEMENT_SET_NO":999,"REV_AT_EPOCH":24249,"BSTAR":-0.0001972,"MEAN_MOTION_DOT":-6.1e-07,"MEAN_MOTION_DDOT":0.0},{"OBJECT_NAME":"ONEWEB-0232","OBJECT_ID":"2021-045Q","EPOCH":"2026-06-02T18:30:05.384160","MEAN_MOTION":13.15549738,"ECCENTRICITY":0.0001891,"INCLINATION":87.9012,"RA_OF_ASC_NODE":262.0544,"ARG_OF_PERICENTER":102.4217,"MEAN_ANOMALY":257.7125,"EPHEMERIS_TYPE":0,"CLASSIFICATION_TYPE":"U","NORAD_CAT_ID":48781,"ELEMENT_SET_NO":999,"REV_AT_EPOCH":24275,"BSTAR":-8.362900000000001e-05,"MEAN_MOTION_DOT":-1.9e-07,"MEAN_MOTION_DDOT":0.0},{"OBJECT_NAME":"ONEWEB-0231","OBJECT_ID":"2021-045R","EPOCH":"2026-06-02T19:47:39.529248","MEAN_MOTION":13.15547779,"ECCENTRICITY":0.0001624,"INCLINATION":87.9007,"RA_OF_ASC_NODE":262.057,"ARG_OF_PERICENTER":100.2961,"MEAN_ANOMALY":259.8353,"EPHEMERIS_TYPE":0,"CLASSIFICATION_TYPE":"U","NORAD_CAT_ID":48782,"ELEMENT_SET_NO":999,"REV_AT_EPOCH":24245,"BSTAR":0.00049898,"MEAN_MOTION_DOT":2.01e-06,"MEAN_MOTION_DDOT":0.0},{"OBJECT_NAME":"ONEWEB-0234","OBJECT_ID":"2021-045S","EPOCH":"2026-06-03T05:49:50.613888","MEAN_MOTION":13.15548465,"ECCENTRICITY":0.0002364,"INCLINATION":87.9005,"RA_OF_ASC_NODE":261.9553,"ARG_OF_PERICENTER":119.9305,"MEAN_ANOMALY":240.206,"EPHEMERIS_TYPE":0,"CLASSIFICATION_TYPE":"U","NORAD_CAT_ID":48783,"ELEMENT_SET_NO":999,"REV_AT_EPOCH":24264,"BSTAR":-0.00019819,"MEAN_MOTION_DOT":-6.2e-07,"MEAN_MOTION_DDOT":0.0},{"OBJECT_NAME":"ONEWEB-0238","OBJECT_ID":"2021-045T","EPOCH":"2026-06-03T05:50:14.008416","MEAN_MOTION":13.15550193,"ECCENTRICITY":0.0002132,"INCLINATION":87.9013,"RA_OF_ASC_NODE":261.9493,"ARG_OF_PERICENTER":112.165,"MEAN_ANOMALY":247.9707,"EPHEMERIS_TYPE":0,"CLASSIFICATION_TYPE":"U","NORAD_CAT_ID":48784,"ELEMENT_SET_NO":999,"REV_AT_EPOCH":24254,"BSTAR":-0.00025124999999999995,"MEAN_MOTION_DOT":-8.2e-07,"MEAN_MOTION_DDOT":0.0},{"OBJECT_NAME":"ONEWEB-0240","OBJECT_ID":"2021-045U","EPOCH":"2026-06-03T06:20:49.611840","MEAN_MOTION":13.15550284,"ECCENTRICITY":0.0001629,"INCLINATION":87.9015,"RA_OF_ASC_NODE":261.9547,"ARG_OF_PERICENTER":107.4311,"MEAN_ANOMALY":252.6997,"EPHEMERIS_TYPE":0,"CLASSIFICATION_TYPE":"U","NORAD_CAT_ID":48785,"ELEMENT_SET_NO":999,"REV_AT_EPOCH":24257,"BSTAR":-0.0001596,"MEAN_MOTION_DOT":-4.7e-07,"MEAN_MOTION_DDOT":0.0},{"OBJECT_NAME":"ONEWEB-0246","OBJECT_ID":"2021-045V","EPOCH":"2026-06-03T06:12:51.834528","MEAN_MOTION":13.15548673,"ECCENTRICITY":0.0001873,"INCLINATION":87.9013,"RA_OF_ASC_NODE":261.9604,"ARG_OF_PERICENTER":98.4232,"MEAN_ANOMALY":261.7111,"EPHEMERIS_TYPE":0,"CLASSIFICATION_TYPE":"U","NORAD_CAT_ID":48786,"ELEMENT_SET_NO":999,"REV_AT_EPOCH":24244,"BSTAR":-0.00012298000000000002,"MEAN_MOTION_DOT":-3.3e-07,"MEAN_MOTION_DDOT":0.0},{"OBJECT_NAME":"ONEWEB-0210","OBJECT_ID":"2021-045W","EPOCH":"2026-06-03T05:36:21.197952","MEAN_MOTION":13.15550052,"ECCENTRICITY":0.000151,"INCLINATION":87.901,"RA_OF_ASC_NODE":261.9633,"ARG_OF_PERICENTER":74.2296,"MEAN_ANOMALY":285.9001,"EPHEMERIS_TYPE":0,"CLASSIFICATION_TYPE":"U","NORAD_CAT_ID":48787,"ELEMENT_SET_NO":999,"REV_AT_EPOCH":24248,"BSTAR":-4.5545e-06,"MEAN_MOTION_DOT":1.1e-07,"MEAN_MOTION_DDOT":0.0},{"OBJECT_NAME":"ONEWEB-0214","OBJECT_ID":"2021-045X","EPOCH":"2026-06-03T05:48:53.752320","MEAN_MOTION":13.15547866,"ECCENTRICITY":0.0001981,"INCLINATION":87.9008,"RA_OF_ASC_NODE":261.9578,"ARG_OF_PERICENTER":87.6925,"MEAN_ANOMALY":272.4432,"EPHEMERIS_TYPE":0,"CLASSIFICATION_TYPE":"U","NORAD_CAT_ID":48788,"ELEMENT_SET_NO":999,"REV_AT_EPOCH":24245,"BSTAR":-0.00018569,"MEAN_MOTION_DOT":-5.7e-07,"MEAN_MOTION_DDOT":0.0},{"OBJECT_NAME":"ONEWEB-0221","OBJECT_ID":"2021-045Y","EPOCH":"2026-06-03T05:59:09.652992","MEAN_MOTION":13.15547355,"ECCENTRICITY":0.0001745,"INCLINATION":87.9009,"RA_OF_ASC_NODE":261.9656,"ARG_OF_PERICENTER":102.1976,"MEAN_ANOMALY":257.935,"EPHEMERIS_TYPE":0,"CLASSIFICATION_TYPE":"U","NORAD_CAT_ID":48789,"ELEMENT_SET_NO":999,"REV_AT_EPOCH":24254,"BSTAR":-0.00023825,"MEAN_MOTION_DOT":-7.7e-07,"MEAN_MOTION_DDOT":0.0},{"OBJECT_NAME":"ONEWEB-0213","OBJECT_ID":"2021-045Z","EPOCH":"2026-06-03T05:43:10.546464","MEAN_MOTION":13.15550263,"ECCENTRICITY":0.0001645,"INCLINATION":87.9009,"RA_OF_ASC_NODE":261.971,"ARG_OF_PERICENTER":97.4925,"MEAN_ANOMALY":262.6392,"EPHEMERIS_TYPE":0,"CLASSIFICATION_TYPE":"U","NORAD_CAT_ID":48790,"ELEMENT_SET_NO":999,"REV_AT_EPOCH":24260,"BSTAR":-7.780700000000001e-05,"MEAN_MOTION_DOT":-1.6e-07,"MEAN_MOTION_DDOT":0.0},{"OBJECT_NAME":"ONEWEB-0212","OBJECT_ID":"2021-045AA","EPOCH":"2026-06-03T05:10:07.387392","MEAN_MOTION":13.15549128,"ECCENTRICITY":0.0001931,"INCLINATION":87.9009,"RA_OF_ASC_NODE":261.9698,"ARG_OF_PERICENTER":103.1092,"MEAN_ANOMALY":257.0254,"EPHEMERIS_TYPE":0,"CLASSIFICATION_TYPE":"U","NORAD_CAT_ID":48791,"ELEMENT_SET_NO":999,"REV_AT_EPOCH":24259,"BSTAR":0.00038082,"MEAN_MOTION_DOT":1.56e-06,"MEAN_MOTION_DDOT":0.0},{"OBJECT_NAME":"ONEWEB-0227","OBJECT_ID":"2021-045AB","EPOCH":"2026-06-02T20:01:21.847296","MEAN_MOTION":13.15547492,"ECCENTRICITY":0.0001829,"INCLINATION":87.9014,"RA_OF_ASC_NODE":262.0461,"ARG_OF_PERICENTER":102.301,"MEAN_ANOMALY":257.8326,"EPHEMERIS_TYPE":0,"CLASSIFICATION_TYPE":"U","NORAD_CAT_ID":48792,"ELEMENT_SET_NO":999,"REV_AT_EPOCH":24249,"BSTAR":0.00047522,"MEAN_MOTION_DOT":1.92e-06,"MEAN_MOTION_DDOT":0.0},{"OBJECT_NAME":"ONEWEB-0226","OBJECT_ID":"2021-045AC","EPOCH":"2026-06-02T19:52:14.173248","MEAN_MOTION":13.1554887,"ECCENTRICITY":0.0001716,"INCLINATION":87.9007,"RA_OF_ASC_NODE":262.0528,"ARG_OF_PERICENTER":94.5677,"MEAN_ANOMALY":265.5649,"EPHEMERIS_TYPE":0,"CLASSIFICATION_TYPE":"U","NORAD_CAT_ID":48793,"ELEMENT_SET_NO":999,"REV_AT_EPOCH":24246,"BSTAR":0.00040472,"MEAN_MOTION_DOT":1.65e-06,"MEAN_MOTION_DDOT":0.0},{"OBJECT_NAME":"ONEWEB-0224","OBJECT_ID":"2021-045AD","EPOCH":"2026-06-03T05:56:52.163808","MEAN_MOTION":13.15550335,"ECCENTRICITY":0.000179,"INCLINATION":87.8998,"RA_OF_ASC_NODE":262.0041,"ARG_OF_PERICENTER":128.192,"MEAN_ANOMALY":231.9372,"EPHEMERIS_TYPE":0,"CLASSIFICATION_TYPE":"U","NORAD_CAT_ID":48794,"ELEMENT_SET_NO":999,"REV_AT_EPOCH":24244,"BSTAR":-0.00019875,"MEAN_MOTION_DOT":-6.2e-07,"MEAN_MOTION_DDOT":0.0},{"OBJECT_NAME":"ONEWEB-0233","OBJECT_ID":"2021-045AE","EPOCH":"2026-06-03T06:03:31.496832","MEAN_MOTION":13.15547275,"ECCENTRICITY":0.000163,"INCLINATION":87.8998,"RA_OF_ASC_NODE":262.0112,"ARG_OF_PERICENTER":103.544,"MEAN_ANOMALY":256.5872,"EPHEMERIS_TYPE":0,"CLASSIFICATION_TYPE":"U","NORAD_CAT_ID":48795,"ELEMENT_SET_NO":999,"REV_AT_EPOCH":24246,"BSTAR":-0.00025926,"MEAN_MOTION_DOT":-8.5e-07,"MEAN_MOTION_DDOT":0.0}]